{
    "links": {
        "self": "http://www.neowsapp.com/rest/v1/neo/3781715?api_key=iIulBulltgU6a56xZRHN4H3l9WmuAYTsLGpBGhQ2"
    },
    "id": "3781715",
    "neo_reference_id": "3781715",
    "name": "(2017 SB12)",
    "designation": "2017 SB12",
    "nasa_jpl_url": "http://ssd.jpl.nasa.gov/sbdb.cgi?sstr=3781715",
    "absolute_magnitude_h": 26.0,
    "estimated_diameter": {
        "kilometers": {
            "estimated_diameter_min": 0.0167708462,
            "estimated_diameter_max": 0.0375007522
        },
        "meters": {
            "estimated_diameter_min": 16.7708462163,
            "estimated_diameter_max": 37.5007521798
        },
        "miles": {
            "estimated_diameter_min": 0.0104209175,
            "estimated_diameter_max": 0.0233018799
        },
        "feet": {
            "estimated_diameter_min": 55.0224631002,
            "estimated_diameter_max": 123.0339677816
        }
    },
    "is_potentially_hazardous_asteroid": false,
    "close_approach_data": [
        {
            "close_approach_date": "2017-09-10",
            "close_approach_date_full": "2017-Sep-10 08:58",
            "epoch_date_close_approach": 1505033880000,
            "relative_velocity": {
                "kilometers_per_second": "7.5452307998",
                "kilometers_per_hour": "27162.8308792863",
                "miles_per_hour": "16877.9267760766"
            },
            "miss_distance": {
                "astronomical": "0.0245416254",
                "lunar": "9.5466922806",
                "kilometers": "3671374.886177898",
                "miles": "2281286.5696070724"
            },
            "orbiting_body": "Earth"
        }
    ],
    "orbital_data": {
        "orbit_id": "2",
        "orbit_determination_date": "2017-12-28 06:24:08",
        "first_observation_date": "2017-09-21",
        "last_observation_date": "2017-09-24",
        "data_arc_in_days": 3,
        "observations_used": 16,
        "orbit_uncertainty": "8",
        "minimum_orbit_intersection": ".0111291",
        "jupiter_tisserand_invariant": "3.548",
        "epoch_osculation": "2458018.5",
        "eccentricity": ".5199534095762742",
        "semi_major_axis": "2.116210398440145",
        "inclination": ".5787199138001264",
        "ascending_node_longitude": "229.5298433777767",
        "orbital_period": "1124.441052391431",
        "perihelion_distance": "1.015879586390426",
        "perihelion_argument": "103.2554414168758",
        "aphelion_distance": "3.216541210489865",
        "perihelion_time": "2457994.851135589201",
        "mean_anomaly": "7.571398402594038",
        "mean_motion": ".3201590685739921",
        "equinox": "J2000",
        "orbit_class": {
            "orbit_class_type": "APO",
            "orbit_class_description": "Near-Earth asteroid orbits which cross the Earth’s orbit similar to that of 1862 Apollo",
            "orbit_class_range": "a (semi-major axis) > 1.0 AU; q (perihelion) < 1.017 AU"
        }
    },
    "is_sentry_object": false
}